{"type": "FeatureCollection", "features": [ {"type": "Feature", "properties": {"norad_id": 34529, "name": "IRIDIUM 33 DEB", "group": "iridium-33-debris", "lat": -31.521811615973473, "lon": 28.39859163519257, "alt_km": 766.8169674570008, "timestamp": "2025-12-23T22:42:33.370712+00:00", "meta": {"OBJECT_NAME": "IRIDIUM 33 DEB", "OBJECT_ID": "1997-051HW", "EPOCH": "2025-12-23T02:51:06.200064", "MEAN_MOTION": 14.4062395, "ECCENTRICITY": 0.00059739, "INCLINATION": 86.3631, "RA_OF_ASC_NODE": 30.9869, "ARG_OF_PERICENTER": 147.143, "MEAN_ANOMALY": 213.0142, "EPHEMERIS_TYPE": 0, "CLASSIFICATION_TYPE": "U", "NORAD_CAT_ID": 34529, "ELEMENT_SET_NO": 999, "REV_AT_EPOCH": 88291, "BSTAR": 0.0001168988, "MEAN_MOTION_DOT": 3.93e-06, "MEAN_MOTION_DDOT": 0}, "tle": {"line1": "1 34529U 97051HW  25357.11882176  .00000393  00000+0  11690-3 0  9995", "line2": "2 34529  86.3631  30.9869 0005973 147.1430 213.0142 14.40623950882916"}}, "geometry": {"type": "Point", "coordinates": [28.39859163519257, -31.521811615973473]}}, {"type": "Feature", "properties": {"norad_id": 34538, "name": "IRIDIUM 33 DEB", "group": "iridium-33-debris", "lat": -68.11728839131065, "lon": -170.02197155668773, "alt_km": 739.6531240382274, "timestamp": "2025-12-23T22:42:33.370722+00:00", "meta": {"OBJECT_NAME": "IRIDIUM 33 DEB", "OBJECT_ID": "1997-051JF", "EPOCH": "2025-12-23T00:03:15.777216", "MEAN_MOTION": 14.42704498, "ECCENTRICITY": 0.00319962, "INCLINATION": 86.2763, "RA_OF_ASC_NODE": 1.06, "ARG_OF_PERICENTER": 292.4528, "MEAN_ANOMALY": 96.6233, "EPHEMERIS_TYPE": 0, "CLASSIFICATION_TYPE": "U", "NORAD_CAT_ID": 34538, "ELEMENT_SET_NO": 999, "REV_AT_EPOCH": 87904, "BSTAR": 0.00088542767, "MEAN_MOTION_DOT": 2.982e-05, "MEAN_MOTION_DDOT": 0}, "tle": {"line1": "1 34538U 97051JF  25357.00226594  .00002982  00000+0  88543-3 0  9996", "line2": "2 34538  86.2763   1.0600 0031996 292.4528  96.6233 14.42704498879044"}}, "geometry": {"type": "Point", "coordinates": [-170.02197155668773, -68.11728839131065]}}, {"type": "Feature", "properties": {"norad_id": 34540, "name": "IRIDIUM 33 DEB", "group": "iridium-33-debris", "lat": -6.3837566088257764, "lon": 122.8962293148598, "alt_km": 641.9619754538298, "timestamp": "2025-12-23T22:42:33.370732+00:00", "meta": {"OBJECT_NAME": "IRIDIUM 33 DEB", "OBJECT_ID": "1997-051JH", "EPOCH": "2025-12-22T19:58:08.744160", "MEAN_MOTION": 14.75512106, "ECCENTRICITY": 0.00179406, "INCLINATION": 86.3119, "RA_OF_ASC_NODE": 302.992, "ARG_OF_PERICENTER": 125.3836, "MEAN_ANOMALY": 266.2203, "EPHEMERIS_TYPE": 0, "CLASSIFICATION_TYPE": "U", "NORAD_CAT_ID": 34540, "ELEMENT_SET_NO": 999, "REV_AT_EPOCH": 89170, "BSTAR": 0.0015814186, "MEAN_MOTION_DOT": 0.00010821, "MEAN_MOTION_DDOT": 0}, "tle": {"line1": "1 34540U 97051JH  25356.83204565  .00010821  00000+0  15814-2 0  9994", "line2": "2 34540  86.3119 302.9920 0017940 125.3836 266.2203 14.75512106891708"}}, "geometry": {"type": "Point", "coordinates": [122.8962293148598, -6.3837566088257764]}}, {"type": "Feature", "properties": {"norad_id": 34648, "name": "IRIDIUM 33 DEB", "group": "iridium-33-debris", "lat": -75.15552711585613, "lon": -96.35568693444681, "alt_km": 738.7783936381875, "timestamp": "2025-12-23T22:42:33.370742+00:00", "meta": {"OBJECT_NAME": "IRIDIUM 33 DEB", "OBJECT_ID": "1997-051JZ", "EPOCH": "2025-12-21T18:19:39.887904", "MEAN_MOTION": 14.11736102, "ECCENTRICITY": 0.01798232, "INCLINATION": 86.3908, "RA_OF_ASC_NODE": 278.3021, "ARG_OF_PERICENTER": 270.6006, "MEAN_ANOMALY": 87.4576, "EPHEMERIS_TYPE": 0, "CLASSIFICATION_TYPE": "U", "NORAD_CAT_ID": 34648, "ELEMENT_SET_NO": 999, "REV_AT_EPOCH": 85088, "BSTAR": 0.0054657739, "MEAN_MOTION_DOT": 0.00011615, "MEAN_MOTION_DDOT": 0}, "tle": {"line1": "1 34648U 97051JZ  25355.76365611  .00011615  00000+0  54658-2 0  9995", "line2": "2 34648  86.3908 278.3021 0179823 270.6006  87.4576 14.11736102850887"}}, "geometry": {"type": "Point", "coordinates": [-96.35568693444681, -75.15552711585613]}}, {"type": "Feature", "properties": {"norad_id": 34651, "name": "IRIDIUM 33 DEB", "group": "iridium-33-debris", "lat": -16.199608884544656, "lon": -43.10828091936367, "alt_km": 719.4387835091838, "timestamp": "2025-12-23T22:42:33.370753+00:00", "meta": {"OBJECT_NAME": "IRIDIUM 33 DEB", "OBJECT_ID": "1997-051KC", "EPOCH": "2025-12-19T16:44:48.420096", "MEAN_MOTION": 14.25922062, "ECCENTRICITY": 0.01422464, "INCLINATION": 86.2827, "RA_OF_ASC_NODE": 137.6175, "ARG_OF_PERICENTER": 181.9677, "MEAN_ANOMALY": 178.0974, "EPHEMERIS_TYPE": 0, "CLASSIFICATION_TYPE": "U", "NORAD_CAT_ID": 34651, "ELEMENT_SET_NO": 999, "REV_AT_EPOCH": 85995, "BSTAR": 0.0022061693, "MEAN_MOTION_DOT": 5.865e-05, "MEAN_MOTION_DDOT": 0}, "tle": {"line1": "1 34651U 97051KC  25353.69778264  .00005865  00000+0  22062-2 0  9995", "line2": "2 34651  86.2827 137.6175 0142246 181.9677 178.0974 14.25922062859957"}}, "geometry": {"type": "Point", "coordinates": [-43.10828091936367, -16.199608884544656]}}, {"type": "Feature", "properties": {"norad_id": 34652, "name": "IRIDIUM 33 DEB", "group": "iridium-33-debris", "lat": -83.78557300441018, "lon": -168.88992303012213, "alt_km": 675.8533363077586, "timestamp": "2025-12-23T22:42:33.370763+00:00", "meta": {"OBJECT_NAME": "IRIDIUM 33 DEB", "OBJECT_ID": "1997-051KD", "EPOCH": "2025-12-22T22:37:56.807904", "MEAN_MOTION": 14.62145244, "ECCENTRICITY": 0.002545, "INCLINATION": 86.3316, "RA_OF_ASC_NODE": 335.4576, "ARG_OF_PERICENTER": 260.7991, "MEAN_ANOMALY": 126.9649, "EPHEMERIS_TYPE": 0, "CLASSIFICATION_TYPE": "U", "NORAD_CAT_ID": 34652, "ELEMENT_SET_NO": 999, "REV_AT_EPOCH": 88633, "BSTAR": 0.00098275, "MEAN_MOTION_DOT": 4.986e-05, "MEAN_MOTION_DDOT": 0}, "tle": {"line1": "1 34652U 97051KD  25356.94301861  .00004986  00000+0  98275-3 0  9995", "line2": "2 34652  86.3316 335.4576 0025450 260.7991 126.9649 14.62145244886330"}}, "geometry": {"type": "Point", "coordinates": [-168.88992303012213, -83.78557300441018]}}, {"type": "Feature", "properties": {"norad_id": 34690, "name": "IRIDIUM 33 DEB", "group": "iridium-33-debris", "lat": -26.090594353083844, "lon": -146.10199055989958, "alt_km": 720.3618823782181, "timestamp": "2025-12-23T22:42:33.370792+00:00", "meta": {"OBJECT_NAME": "IRIDIUM 33 DEB", "OBJECT_ID": "1997-051KM", "EPOCH": "2025-12-23T02:05:55.177152", "MEAN_MOTION": 14.55131538, "ECCENTRICITY": 0.00096335, "INCLINATION": 86.3772, "RA_OF_ASC_NODE": 32.4934, "ARG_OF_PERICENTER": 354.9815, "MEAN_ANOMALY": 35.335, "EPHEMERIS_TYPE": 0, "CLASSIFICATION_TYPE": "U", "NORAD_CAT_ID": 34690, "ELEMENT_SET_NO": 999, "REV_AT_EPOCH": 88245, "BSTAR": 0.00039542617, "MEAN_MOTION_DOT": 1.728e-05, "MEAN_MOTION_DDOT": 0}, "tle": {"line1": "1 34690U 97051KM  25357.08744418  .00001728  00000+0  39543-3 0  9996", "line2": "2 34690  86.3772  32.4934 0009633 354.9815  35.3350 14.55131538882450"}}, "geometry": {"type": "Point", "coordinates": [-146.10199055989958, -26.090594353083844]}}, {"type": "Feature", "properties": {"norad_id": 34693, "name": "IRIDIUM 33 DEB", "group": "iridium-33-debris", "lat": 0.7501915455580535, "lon": -61.70467827563845, "alt_km": 470.70700892871173, "timestamp": "2025-12-23T22:42:33.370803+00:00", "meta": {"OBJECT_NAME": "IRIDIUM 33 DEB", "OBJECT_ID": "1997-051KQ", "EPOCH": "2025-12-23T02:21:36.766080", "MEAN_MOTION": 15.30387063, "ECCENTRICITY": 0.00106491, "INCLINATION": 86.3056, "RA_OF_ASC_NODE": 298.6696, "ARG_OF_PERICENTER": 34.5294, "MEAN_ANOMALY": 337.965, "EPHEMERIS_TYPE": 0, "CLASSIFICATION_TYPE": "U", "NORAD_CAT_ID": 34693, "ELEMENT_SET_NO": 999, "REV_AT_EPOCH": 89073, "BSTAR": 0.0048464454, "MEAN_MOTION_DOT": 0.001451, "MEAN_MOTION_DDOT": 0}, "tle": {"line1": "1 34693U 97051KQ  25357.09834220  .00145100  00000+0  48464-2 0  9995", "line2": "2 34693  86.3056 298.6696 0010649  34.5294 337.9650 15.30387063890734"}}, "geometry": {"type": "Point", "coordinates": [-61.70467827563845, 0.7501915455580535]}}, {"type": "Feature", "properties": {"norad_id": 34696, "name": "IRIDIUM 33 DEB", "group": "iridium-33-debris", "lat": 36.38488891388731, "lon": 25.12576971565949, "alt_km": 675.1609036915224, "timestamp": "2025-12-23T22:42:33.370813+00:00", "meta": {"OBJECT_NAME": "IRIDIUM 33 DEB", "OBJECT_ID": "1997-051KT", "EPOCH": "2025-12-23T01:22:31.057824", "MEAN_MOTION": 14.65554291, "ECCENTRICITY": 0.00740191, "INCLINATION": 86.1834, "RA_OF_ASC_NODE": 22.7202, "ARG_OF_PERICENTER": 132.72, "MEAN_ANOMALY": 257.7556, "EPHEMERIS_TYPE": 0, "CLASSIFICATION_TYPE": "U", "NORAD_CAT_ID": 34696, "ELEMENT_SET_NO": 999, "REV_AT_EPOCH": 86824, "BSTAR": 0.0043722912, "MEAN_MOTION_DOT": 0.00024778, "MEAN_MOTION_DDOT": 0}, "tle": {"line1": "1 34696U 97051KT  25357.05730391  .00024778  00000+0  43723-2 0  9998", "line2": "2 34696  86.1834  22.7202 0074019 132.7200 257.7556 14.65554291868248"}}, "geometry": {"type": "Point", "coordinates": [25.12576971565949, 36.38488891388731]}}, {"type": "Feature", "properties": {"norad_id": 34765, "name": "IRIDIUM 33 DEB", "group": "iridium-33-debris", "lat": 5.046562197828089, "lon": 28.27648496592913, "alt_km": 770.8819389370037, "timestamp": "2025-12-23T22:42:33.370823+00:00", "meta": {"OBJECT_NAME": "IRIDIUM 33 DEB", "OBJECT_ID": "1997-051LJ", "EPOCH": "2025-12-23T02:58:27.844896", "MEAN_MOTION": 14.40490027, "ECCENTRICITY": 0.00166531, "INCLINATION": 86.3383, "RA_OF_ASC_NODE": 28.3053, "ARG_OF_PERICENTER": 176.053, "MEAN_ANOMALY": 247.6854, "EPHEMERIS_TYPE": 0, "CLASSIFICATION_TYPE": "U", "NORAD_CAT_ID": 34765, "ELEMENT_SET_NO": 999, "REV_AT_EPOCH": 87763, "BSTAR": 0.00035770807, "MEAN_MOTION_DOT": 1.159e-05, "MEAN_MOTION_DDOT": 0}, "tle": {"line1": "1 34765U 97051LJ  25357.12393339  .00001159  00000+0  35771-3 0  9993", "line2": "2 34765  86.3383  28.3053 0016653 176.0530 247.6854 14.40490027877630"}}, "geometry": {"type": "Point", "coordinates": [28.27648496592913, 5.046562197828089]}}]}